{
  "norad_id": 46112,
  "name": "BSAT-4B",
  "history": [
    {
      "epoch": "2026-03-28T21:50:38.837472Z",
      "apogee_km": 35795.9793618368,
      "perigee_km": 35777.937760748035,
      "latitude_deg": 0.05396518437858736,
      "longitude_deg": 109.84358957199488,
      "height_km": 35795.42132090253,
      "semi_major_axis_km": 42165.095561292415,
      "eccentricity": 0.00021394,
      "inclination_deg": 0.0576,
      "raan_deg": 120.6752,
      "arg_perigee_deg": 322.3867,
      "mean_anomaly_deg": 180.7443,
      "mean_motion_rev_day": 1.00270488
    },
    {
      "epoch": "2026-03-28T23:51:50.783328Z",
      "apogee_km": 35796.0307760331,
      "perigee_km": 35777.9082132617,
      "latitude_deg": 0.02464963240022248,
      "longitude_deg": 109.83078846324754,
      "height_km": 35794.172040402795,
      "semi_major_axis_km": 42165.1064946474,
      "eccentricity": 0.0002149,
      "inclination_deg": 0.0578,
      "raan_deg": 120.4619,
      "arg_perigee_deg": 322.6358,
      "mean_anomaly_deg": 211.0908,
      "mean_motion_rev_day": 1.00270449
    },
    {
      "epoch": "2026-03-29T23:49:24.076128Z",
      "apogee_km": 35796.617289981405,
      "perigee_km": 35777.551020279476,
      "latitude_deg": 0.02471924652525765,
      "longitude_deg": 109.82379669295065,
      "height_km": 35794.687954061104,
      "semi_major_axis_km": 42165.22115513044,
      "eccentricity": 0.00022609,
      "inclination_deg": 0.0604,
      "raan_deg": 118.8232,
      "arg_perigee_deg": 324.6714,
      "mean_anomaly_deg": 211.0614,
      "mean_motion_rev_day": 1.0027004
    },
    {
      "epoch": "2026-03-30T10:05:24.989568Z",
      "apogee_km": 35796.9009353409,
      "perigee_km": 35777.36998113825,
      "latitude_deg": -0.0512990521510698,
      "longitude_deg": 109.83583920765281,
      "height_km": 35776.961702253415,
      "semi_major_axis_km": 42165.272458239575,
      "eccentricity": 0.0002316,
      "inclination_deg": 0.0616,
      "raan_deg": 118.2139,
      "arg_perigee_deg": 325.219,
      "mean_anomaly_deg": 5.5455,
      "mean_motion_rev_day": 1.00269857
    },
    {
      "epoch": "2026-03-30T15:13:35.500224Z",
      "apogee_km": 35797.03623199343,
      "perigee_km": 35777.278418378526,
      "latitude_deg": 0.03707208537669973,
      "longitude_deg": 109.8578623593622,
      "height_km": 35785.41054740806,
      "semi_major_axis_km": 42165.294325185976,
      "eccentricity": 0.00023429,
      "inclination_deg": 0.0623,
      "raan_deg": 117.6637,
      "arg_perigee_deg": 325.9304,
      "mean_anomaly_deg": 82.6377,
      "mean_motion_rev_day": 1.00269779
    },
    {
      "epoch": "2026-03-31T20:19:04.224288Z",
      "apogee_km": 35795.47583514766,
      "perigee_km": 35776.931958021334,
      "latitude_deg": 0.06779053852187086,
      "longitude_deg": 109.84808476974318,
      "height_km": 35794.30749398995,
      "semi_major_axis_km": 42164.3408965845,
      "eccentricity": 0.0002199,
      "inclination_deg": 0.0656,
      "raan_deg": 116.133,
      "arg_perigee_deg": 328.7025,
      "mean_anomaly_deg": 158.9718,
      "mean_motion_rev_day": 1.0027318
    },
    {
      "epoch": "2026-04-01T17:35:38.643360Z",
      "apogee_km": 35796.093394246534,
      "perigee_km": 35776.54595213285,
      "latitude_deg": 0.06605368538785458,
      "longitude_deg": 109.86342323536111,
      "height_km": 35790.494727650956,
      "semi_major_axis_km": 42164.4566731897,
      "eccentricity": 0.0002318,
      "inclination_deg": 0.0678,
      "raan_deg": 114.7311,
      "arg_perigee_deg": 330.4393,
      "mean_anomaly_deg": 118.658,
      "mean_motion_rev_day": 1.00272767
    },
    {
      "epoch": "2026-04-02T18:31:27.585120Z",
      "apogee_km": 35796.744106900966,
      "perigee_km": 35776.14249296641,
      "latitude_deg": 0.06974506428813544,
      "longitude_deg": 109.86076753964598,
      "height_km": 35792.956786852774,
      "semi_major_axis_km": 42164.58029993369,
      "eccentricity": 0.0002443,
      "inclination_deg": 0.0703,
      "raan_deg": 113.265,
      "arg_perigee_deg": 332.4487,
      "mean_anomaly_deg": 133.0958,
      "mean_motion_rev_day": 1.00272326
    },
    {
      "epoch": "2026-04-02T20:14:10.235328Z",
      "apogee_km": 35796.782875390956,
      "perigee_km": 35776.12222651098,
      "latitude_deg": 0.06567236223160122,
      "longitude_deg": 109.8505358858009,
      "height_km": 35795.53228370249,
      "semi_major_axis_km": 42164.58955095097,
      "eccentricity": 0.000245,
      "inclination_deg": 0.0704,
      "raan_deg": 113.2145,
      "arg_perigee_deg": 332.5857,
      "mean_anomaly_deg": 158.7575,
      "mean_motion_rev_day": 1.00272293
    },
    {
      "epoch": "2026-04-03T20:47:52.137024Z",
      "apogee_km": 35797.37988946274,
      "perigee_km": 35775.783120644446,
      "latitude_deg": 0.059418371753207154,
      "longitude_deg": 109.84530822476906,
      "height_km": 35796.57673865495,
      "semi_major_axis_km": 42164.71850505359,
      "eccentricity": 0.0002561,
      "inclination_deg": 0.0726,
      "raan_deg": 111.8106,
      "arg_perigee_deg": 334.5281,
      "mean_anomaly_deg": 167.6536,
      "mean_motion_rev_day": 1.00271833
    }
  ]
}